ELECTRON KICK STAGE R/B 
1 67223U 25305E   25352.25796233  .00018378  00000+0  18044-3 0  9995
2 67223  44.9944 321.2861 0180362 136.4210 225.1089 15.48092024    19
ELECTRON R/B            
1 67224U 25305F   25352.76890193  .00172783  86369-5  22935-3 0  9995
2 67224  45.0188 318.3021 0262888 280.1207  77.0133 15.64663678    93
